[{"OBJECT_NAME":"STARLINK-36504","OBJECT_ID":"2026-008T","EPOCH":"2026-03-09T10:24:56.797344","MEAN_MOTION":15.27598745,"ECCENTRICITY":0.00029014,"INCLINATION":43.0004,"RA_OF_ASC_NODE":206.6155,"ARG_OF_PERICENTER":297.7687,"MEAN_ANOMALY":62.287,"EPHEMERIS_TYPE":0,"CLASSIFICATION_TYPE":"U","NORAD_CAT_ID":67462,"ELEMENT_SET_NO":999,"REV_AT_EPOCH":953,"BSTAR":0.001170081,"MEAN_MOTION_DOT":0.00032097,"MEAN_MOTION_DDOT":0},{"OBJECT_NAME":"FENGYUN 1C DEB","OBJECT_ID":"1999-025BCE","EPOCH":"2026-03-09T20:27:54.391104","MEAN_MOTION":15.38307136,"ECCENTRICITY":0.00917966,"INCLINATION":98.5506,"RA_OF_ASC_NODE":34.4945,"ARG_OF_PERICENTER":39.9911,"MEAN_ANOMALY":320.8043,"EPHEMERIS_TYPE":0,"CLASSIFICATION_TYPE":"U","NORAD_CAT_ID":30988,"ELEMENT_SET_NO":999,"REV_AT_EPOCH":875,"BSTAR":0.0023570074,"MEAN_MOTION_DOT":0.00103953,"MEAN_MOTION_DDOT":0}]
